GLOBALSTAR M075         
1 37192U 10054E   25037.83722797 -.00000082  00000+0  12265-3 0  9993
2 37192  51.9919 218.4227 0001045  94.2580  14.9847 12.62272775659916
GLOBALSTAR M073         
1 37193U 10054F   25037.69005106 -.00000098  00000+0  30463-4 0  9994
2 37193  52.0058 132.5922 0000820 105.5864  53.0047 12.62262957661406
GLOBALSTAR M083         
1 37739U 11033A   25037.69848535 -.00000106  00000+0 -12036-4 0  9996
2 37739  51.9858  81.4738 0000324 108.2605  30.0910 12.62271463630735
GLOBALSTAR M088         
1 37740U 11033B   25036.85375536 -.00000094  00000+0  56632-4 0  9996
2 37740  51.9763 349.6486 0000374  44.7795 333.2528 12.62273713625816
GLOBALSTAR M091         
1 37741U 11033C   25036.96000675 -.00000074  00000+0  16842-3 0  9994
2 37741  52.0013 312.6483 0000507  40.1629  40.2789 12.62264351626877
GLOBALSTAR M085         
1 37742U 11033D   25037.81809146 -.00000075  00000+0  15860-3 0  9990
2 37742  51.9851 261.1902 0000794  65.3519  16.1496 12.62265215627727
GLOBALSTAR M081         
1 37743U 11033E   25037.76352784 -.00000069  00000+0  19651-3 0  9991
2 37743  51.9943 264.0610 0000985  62.6395  11.8578 12.62260425627756
GLOBALSTAR M089         
1 37744U 11033F   25037.72591955 -.00000079  00000+0  14050-3 0  9992
2 37744  51.9902 218.4269 0001257  92.8707 349.7917 12.62266074628465
